HADES-SA (SPINNYONE)    
1 68446U 26067AG  26113.57965587  .00013433  00000+0  67859-3 0  9995
2 68446  97.4374  72.7854 0004612 262.3893  97.6817 15.17192022  3644
TRANSPORTER-16 OBJECT AH
1 68447U 26067AH  26113.69305965  .00006250  00000+0  30931-3 0  9997
2 68447  97.4488  72.9700 0002012 125.7939 234.3482 15.18151973  3670
HAWK-14A                
1 68448U 26067AJ  26113.89914200  .00002673  00000+0  13545-3 0  9995
2 68448  97.4574  73.1803 0001422 254.1749 105.9328 15.17833479  3707
TRANSPORTER-16 OBJECT AK
1 68449U 26067AK  26113.64029005  .00005887  00000+0  29855-3 0  9990
2 68449  97.4478  72.8851 0001913 258.6431 101.4588 15.17317373  3666
TRANSPORTER-16 OBJECT AL
1 68450U 26067AL  26113.69475793  .00006192  00000+0  30743-3 0  9994
2 68450  97.4515  72.9765 0001948 145.6195 214.5165 15.18043252  3676
TRANSPORTER-16 OBJECT AM
1 68451U 26067AM  26113.69379561  .00006215  00000+0  30801-3 0  9992
2 68451  97.4473  72.9641 0001795 126.7915 233.3484 15.18105395  3673
TRANSPORTER-16 OBJECT AN
1 68452U 26067AN  26113.63943627  .00005895  00000+0  29850-3 0  9992
2 68452  97.4514  72.8980 0002005 242.9355 117.1674 15.17370264  3666
TRANSPORTER-16 OBJECT AP
1 68453U 26067AP  26113.69507640  .00006220  00000+0  30895-3 0  9994
2 68453  97.4518  72.9775 0002021 153.4375 206.6963 15.18022678  3670
TRANSPORTER-16 OBJECT AQ
1 68454U 26067AQ  26113.64401148  .00005367  00000+0  27435-3 0  9993
2 68454  97.4539  72.8998 0003500 245.3271 114.7598 15.17076457  3664
TRANSPORTER-16 OBJECT AR
1 68455U 26067AR  26113.64632276  .00003703  00000+0  19138-3 0  9995
2 68455  97.4540  72.8960 0003891 245.6507 114.4320 15.16887415  3667
PARUS-6U1               
1 68456U 26067AS  26113.64605845  .00004371  00000+0  22506-3 0  9993
2 68456  97.4515  72.8885 0003808 245.7926 114.2910 15.16924169  3661
TRANSPORTER-16 OBJECT AT
1 68457U 26067AT  26113.68956883  .00007947  00000+0  38929-3 0  9997
2 68457  97.4512  72.9818 0002842 126.9518 233.1977 15.18420320  3677
SAL-E                   
1 68458U 26067AU  26113.64630075  .00006104  00000+0  31261-3 0  9992
2 68458  97.4442  72.8669 0003874 260.3571  99.7225 15.16951071  3662
TRANSPORTER-16 OBJECT AV
1 68459U 26067AV  26113.64745718  .00004479  00000+0  23106-3 0  9996
2 68459  97.4495  72.8810 0004180 247.8293 112.2497 15.16840877  3664
COSMO                   
1 68460U 26067AW  26113.64703809  .00005616  00000+0  28836-3 0  9992
2 68460  97.4463  72.8725 0004088 253.7157 106.3627 15.16894822  3666
TRANSPORTER-16 OBJECT AX
1 68461U 26067AX  26113.63913164  .00005943  00000+0  30074-3 0  9999
2 68461  97.4517  72.8998 0001901 244.9061 115.1975 15.17390583  3666
