[{"OBJECT_NAME":"HADES-SA (SPINNYONE)","OBJECT_ID":"2026-067AG","EPOCH":"2026-04-23T13:54:42.267168","MEAN_MOTION":15.17192022,"ECCENTRICITY":0.00046127,"INCLINATION":97.4374,"RA_OF_ASC_NODE":72.7854,"ARG_OF_PERICENTER":262.3893,"MEAN_ANOMALY":97.6817,"EPHEMERIS_TYPE":0,"CLASSIFICATION_TYPE":"U","NORAD_CAT_ID":68446,"ELEMENT_SET_NO":999,"REV_AT_EPOCH":364,"BSTAR":0.00067859213,"MEAN_MOTION_DOT":0.00013433,"MEAN_MOTION_DDOT":0},{"OBJECT_NAME":"TRANSPORTER-16 OBJECT AH","OBJECT_ID":"2026-067AH","EPOCH":"2026-04-23T16:38:00.353760","MEAN_MOTION":15.18151973,"ECCENTRICITY":0.00020122,"INCLINATION":97.4488,"RA_OF_ASC_NODE":72.97,"ARG_OF_PERICENTER":125.7939,"MEAN_ANOMALY":234.3482,"EPHEMERIS_TYPE":0,"CLASSIFICATION_TYPE":"U","NORAD_CAT_ID":68447,"ELEMENT_SET_NO":999,"REV_AT_EPOCH":367,"BSTAR":0.00030930973,"MEAN_MOTION_DOT":6.25e-5,"MEAN_MOTION_DDOT":0},{"OBJECT_NAME":"HAWK-14A","OBJECT_ID":"2026-067AJ","EPOCH":"2026-04-23T21:34:45.868800","MEAN_MOTION":15.17833479,"ECCENTRICITY":0.0001422,"INCLINATION":97.4574,"RA_OF_ASC_NODE":73.1803,"ARG_OF_PERICENTER":254.1749,"MEAN_ANOMALY":105.9328,"EPHEMERIS_TYPE":0,"CLASSIFICATION_TYPE":"U","NORAD_CAT_ID":68448,"ELEMENT_SET_NO":999,"REV_AT_EPOCH":370,"BSTAR":0.00013545,"MEAN_MOTION_DOT":2.673e-5,"MEAN_MOTION_DDOT":0},{"OBJECT_NAME":"TRANSPORTER-16 OBJECT AK","OBJECT_ID":"2026-067AK","EPOCH":"2026-04-23T15:22:01.060320","MEAN_MOTION":15.17317373,"ECCENTRICITY":0.00019137,"INCLINATION":97.4478,"RA_OF_ASC_NODE":72.8851,"ARG_OF_PERICENTER":258.6431,"MEAN_ANOMALY":101.4588,"EPHEMERIS_TYPE":0,"CLASSIFICATION_TYPE":"U","NORAD_CAT_ID":68449,"ELEMENT_SET_NO":999,"REV_AT_EPOCH":366,"BSTAR":0.00029854641,"MEAN_MOTION_DOT":5.887e-5,"MEAN_MOTION_DDOT":0},{"OBJECT_NAME":"TRANSPORTER-16 OBJECT AL","OBJECT_ID":"2026-067AL","EPOCH":"2026-04-23T16:40:27.085152","MEAN_MOTION":15.18043252,"ECCENTRICITY":0.00019484,"INCLINATION":97.4515,"RA_OF_ASC_NODE":72.9765,"ARG_OF_PERICENTER":145.6195,"MEAN_ANOMALY":214.5165,"EPHEMERIS_TYPE":0,"CLASSIFICATION_TYPE":"U","NORAD_CAT_ID":68450,"ELEMENT_SET_NO":999,"REV_AT_EPOCH":367,"BSTAR":0.00030743435,"MEAN_MOTION_DOT":6.192e-5,"MEAN_MOTION_DDOT":0},{"OBJECT_NAME":"TRANSPORTER-16 OBJECT AM","OBJECT_ID":"2026-067AM","EPOCH":"2026-04-23T16:39:03.940704","MEAN_MOTION":15.18105395,"ECCENTRICITY":0.00017955,"INCLINATION":97.4473,"RA_OF_ASC_NODE":72.9641,"ARG_OF_PERICENTER":126.7915,"MEAN_ANOMALY":233.3484,"EPHEMERIS_TYPE":0,"CLASSIFICATION_TYPE":"U","NORAD_CAT_ID":68451,"ELEMENT_SET_NO":999,"REV_AT_EPOCH":367,"BSTAR":0.00030801448,"MEAN_MOTION_DOT":6.215e-5,"MEAN_MOTION_DDOT":0},{"OBJECT_NAME":"TRANSPORTER-16 OBJECT AN","OBJECT_ID":"2026-067AN","EPOCH":"2026-04-23T15:20:47.293728","MEAN_MOTION":15.17370264,"ECCENTRICITY":0.00020053,"INCLINATION":97.4514,"RA_OF_ASC_NODE":72.898,"ARG_OF_PERICENTER":242.9355,"MEAN_ANOMALY":117.1674,"EPHEMERIS_TYPE":0,"CLASSIFICATION_TYPE":"U","NORAD_CAT_ID":68452,"ELEMENT_SET_NO":999,"REV_AT_EPOCH":366,"BSTAR":0.00029849796,"MEAN_MOTION_DOT":5.895e-5,"MEAN_MOTION_DDOT":0},{"OBJECT_NAME":"TRANSPORTER-16 OBJECT AP","OBJECT_ID":"2026-067AP","EPOCH":"2026-04-23T16:40:54.600960","MEAN_MOTION":15.18022678,"ECCENTRICITY":0.00020214,"INCLINATION":97.4518,"RA_OF_ASC_NODE":72.9775,"ARG_OF_PERICENTER":153.4375,"MEAN_ANOMALY":206.6963,"EPHEMERIS_TYPE":0,"CLASSIFICATION_TYPE":"U","NORAD_CAT_ID":68453,"ELEMENT_SET_NO":999,"REV_AT_EPOCH":367,"BSTAR":0.00030894628,"MEAN_MOTION_DOT":6.22e-5,"MEAN_MOTION_DDOT":0},{"OBJECT_NAME":"TRANSPORTER-16 OBJECT AQ","OBJECT_ID":"2026-067AQ","EPOCH":"2026-04-23T15:27:22.591872","MEAN_MOTION":15.17076457,"ECCENTRICITY":0.00035004,"INCLINATION":97.4539,"RA_OF_ASC_NODE":72.8998,"ARG_OF_PERICENTER":245.3271,"MEAN_ANOMALY":114.7598,"EPHEMERIS_TYPE":0,"CLASSIFICATION_TYPE":"U","NORAD_CAT_ID":68454,"ELEMENT_SET_NO":999,"REV_AT_EPOCH":366,"BSTAR":0.00027435073,"MEAN_MOTION_DOT":5.367e-5,"MEAN_MOTION_DDOT":0},{"OBJECT_NAME":"TRANSPORTER-16 OBJECT AR","OBJECT_ID":"2026-067AR","EPOCH":"2026-04-23T15:30:42.286464","MEAN_MOTION":15.16887415,"ECCENTRICITY":0.00038919,"INCLINATION":97.454,"RA_OF_ASC_NODE":72.896,"ARG_OF_PERICENTER":245.6507,"MEAN_ANOMALY":114.432,"EPHEMERIS_TYPE":0,"CLASSIFICATION_TYPE":"U","NORAD_CAT_ID":68455,"ELEMENT_SET_NO":999,"REV_AT_EPOCH":366,"BSTAR":0.00019137875,"MEAN_MOTION_DOT":3.703e-5,"MEAN_MOTION_DDOT":0},{"OBJECT_NAME":"PARUS-6U1","OBJECT_ID":"2026-067AS","EPOCH":"2026-04-23T15:30:19.450080","MEAN_MOTION":15.16924169,"ECCENTRICITY":0.00038086,"INCLINATION":97.4515,"RA_OF_ASC_NODE":72.8885,"ARG_OF_PERICENTER":245.7926,"MEAN_ANOMALY":114.291,"EPHEMERIS_TYPE":0,"CLASSIFICATION_TYPE":"U","NORAD_CAT_ID":68456,"ELEMENT_SET_NO":999,"REV_AT_EPOCH":366,"BSTAR":0.00022506124,"MEAN_MOTION_DOT":4.371e-5,"MEAN_MOTION_DDOT":0},{"OBJECT_NAME":"TRANSPORTER-16 OBJECT AT","OBJECT_ID":"2026-067AT","EPOCH":"2026-04-23T16:32:58.746912","MEAN_MOTION":15.1842032,"ECCENTRICITY":0.00028425,"INCLINATION":97.4512,"RA_OF_ASC_NODE":72.9818,"ARG_OF_PERICENTER":126.9518,"MEAN_ANOMALY":233.1977,"EPHEMERIS_TYPE":0,"CLASSIFICATION_TYPE":"U","NORAD_CAT_ID":68457,"ELEMENT_SET_NO":999,"REV_AT_EPOCH":367,"BSTAR":0.00038929457,"MEAN_MOTION_DOT":7.947e-5,"MEAN_MOTION_DDOT":0},{"OBJECT_NAME":"SAL-E","OBJECT_ID":"2026-067AU","EPOCH":"2026-04-23T15:30:40.384800","MEAN_MOTION":15.16951071,"ECCENTRICITY":0.00038744,"INCLINATION":97.4442,"RA_OF_ASC_NODE":72.8669,"ARG_OF_PERICENTER":260.3571,"MEAN_ANOMALY":99.7225,"EPHEMERIS_TYPE":0,"CLASSIFICATION_TYPE":"U","NORAD_CAT_ID":68458,"ELEMENT_SET_NO":999,"REV_AT_EPOCH":366,"BSTAR":0.00031260973,"MEAN_MOTION_DOT":6.104e-5,"MEAN_MOTION_DDOT":0},{"OBJECT_NAME":"TRANSPORTER-16 OBJECT AV","OBJECT_ID":"2026-067AV","EPOCH":"2026-04-23T15:32:20.300352","MEAN_MOTION":15.16840877,"ECCENTRICITY":0.000418,"INCLINATION":97.4495,"RA_OF_ASC_NODE":72.881,"ARG_OF_PERICENTER":247.8293,"MEAN_ANOMALY":112.2497,"EPHEMERIS_TYPE":0,"CLASSIFICATION_TYPE":"U","NORAD_CAT_ID":68459,"ELEMENT_SET_NO":999,"REV_AT_EPOCH":366,"BSTAR":0.00023105671,"MEAN_MOTION_DOT":4.479e-5,"MEAN_MOTION_DDOT":0},{"OBJECT_NAME":"COSMO","OBJECT_ID":"2026-067AW","EPOCH":"2026-04-23T15:31:44.090976","MEAN_MOTION":15.16894822,"ECCENTRICITY":0.0004088,"INCLINATION":97.4463,"RA_OF_ASC_NODE":72.8725,"ARG_OF_PERICENTER":253.7157,"MEAN_ANOMALY":106.3627,"EPHEMERIS_TYPE":0,"CLASSIFICATION_TYPE":"U","NORAD_CAT_ID":68460,"ELEMENT_SET_NO":999,"REV_AT_EPOCH":366,"BSTAR":0.00028835754,"MEAN_MOTION_DOT":5.616e-5,"MEAN_MOTION_DDOT":0},{"OBJECT_NAME":"TRANSPORTER-16 OBJECT AX","OBJECT_ID":"2026-067AX","EPOCH":"2026-04-23T15:20:20.973696","MEAN_MOTION":15.17390583,"ECCENTRICITY":0.00019017,"INCLINATION":97.4517,"RA_OF_ASC_NODE":72.8998,"ARG_OF_PERICENTER":244.9061,"MEAN_ANOMALY":115.1975,"EPHEMERIS_TYPE":0,"CLASSIFICATION_TYPE":"U","NORAD_CAT_ID":68461,"ELEMENT_SET_NO":999,"REV_AT_EPOCH":366,"BSTAR":0.00030074206,"MEAN_MOTION_DOT":5.943e-5,"MEAN_MOTION_DDOT":0}]
